0 COSMOS 2251 DEB
1 34759U 93036AAD 13282.70442264  .00006736  00000-0  20900-2 0  8583
2 34759 074.0355 145.8278 0031455 200.5907 224.8873 14.40985863245148
0 COSMOS 2251 DEB
1 34759U 93036AAD 13283.67457584  .00005334  00000-0  16568-2 0  8590
2 34759 074.0358 144.0324 0031383 198.3636 217.8164 14.40997731245284
0 COSMOS 2251 DEB
1 34759U 93036AAD 13286.02415743  .00006489  00000-0  20128-2 0  8604
2 34759 074.0343 139.6835 0030725 192.9113 167.1147 14.41025884245622
0 COSMOS 2251 DEB
1 34759U 93036AAD 13288.26932064  .00010300  00000-0  31857-2 0  8611
2 34759 074.0342 135.5277 0031171 188.1930 294.4387 14.41053301245946
0 COSMOS 2251 DEB
1 34759U 93036AAD 13289.57070362  .00010220  00000-0  31600-2 0  8628
2 34759 074.0339 133.1185 0031091 185.5074 205.7596 14.41072933246136
0 COSMOS 2251 DEB
1 34759U 93036AAD 13290.97670722  .00008450  00000-0  26138-2 0  8633
2 34759 074.0334 130.5159 0031028 182.3605 300.1810 14.41096358246336
0 COSMOS 2251 DEB
1 34759U 93036AAD 13292.99521133  .00008548  00000-0  26425-2 0  8646
2 34759 074.0336 126.7788 0030974 177.9025 332.4209 14.41124638246623
0 COSMOS 2251 DEB
1 34759U 93036AAD 13295.61743064  .00011134  00000-0  34350-2 0  8659
2 34759 074.0338 121.9234 0030834 172.3892 256.8587 14.41166462247006
